[
    {
        "Altitude(m)": 554405.4838560196,
        "Argument of Periapsis(deg)": 0.0,
        "Eccentricity": 0.0,
        "Inclination(deg)": 53.0,
        "Latitude(deg)": 25.652401605013342,
        "Longitude(deg)": 116.12522966491375,
        "Mean Anomaly(deg)": 32.727299999999985,
        "RAAN(deg)": 195.00000000000003,
        "Satellite Name": "Starlink Shell 1 860",
        "Satellite Number": 860,
        "Semi-Major Axis(m)": 6931778.249405717,
        "Time(s)": 0
    },
    {
        "Altitude(m)": 554467.1650169325,
        "Argument of Periapsis(deg)": 0.00034857847951123687,
        "Eccentricity": 0.0,
        "Inclination(deg)": 53.0,
        "Latitude(deg)": 26.121130223887867,
        "Longitude(deg)": 116.54885010088215,
        "Mean Anomaly(deg)": 33.354131203556705,
        "RAAN(deg)": 194.99948122992254,
        "Satellite Name": "Starlink Shell 1 860",
        "Satellite Number": 860,
        "Semi-Major Axis(m)": 6931778.249405717,
        "Time(s)": 10
    },
    {
        "Altitude(m)": 554530.3458636384,
        "Argument of Periapsis(deg)": 0.0006971569590224737,
        "Eccentricity": 0.0,
        "Inclination(deg)": 53.0,
        "Latitude(deg)": 26.58831793402628,
        "Longitude(deg)": 116.97618621794355,
        "Mean Anomaly(deg)": 33.9809624071134,
        "RAAN(deg)": 194.99896245984505,
        "Satellite Name": "Starlink Shell 1 860",
        "Satellite Number": 860,
        "Semi-Major Axis(m)": 6931778.249405717,
        "Time(s)": 20
    },
    {
        "Altitude(m)": 554594.9762591626,
        "Argument of Periapsis(deg)": 0.0010457354385337105,
        "Eccentricity": 0.0,
        "Inclination(deg)": 53.0,
        "Latitude(deg)": 27.053920875684287,
        "Longitude(deg)": 117.40733267498473,
        "Mean Anomaly(deg)": 34.60779361067017,
        "RAAN(deg)": 194.99844368976758,
        "Satellite Name": "Starlink Shell 1 860",
        "Satellite Number": 860,
        "Semi-Major Axis(m)": 6931778.249405717,
        "Time(s)": 30
    },
    {
        "Altitude(m)": 554661.0055204717,
        "Argument of Periapsis(deg)": 0.0013943139180449475,
        "Eccentricity": 0.0,
        "Inclination(deg)": 53.0,
        "Latitude(deg)": 27.51789424484284,
        "Longitude(deg)": 117.84238594500285,
        "Mean Anomaly(deg)": 35.23462481422684,
        "RAAN(deg)": 194.99792491969012,
        "Satellite Name": "Starlink Shell 1 860",
        "Satellite Number": 860,
        "Semi-Major Axis(m)": 6931778.249405717,
        "Time(s)": 40
    },
    {
        "Altitude(m)": 554728.382445575,
        "Argument of Periapsis(deg)": 0.0017428923975561844,
        "Eccentricity": 0.0,
        "Inclination(deg)": 53.0,
        "Latitude(deg)": 27.9801922645195,
        "Longitude(deg)": 118.28144331349533,
        "Mean Anomaly(deg)": 35.86145601778359,
        "RAAN(deg)": 194.99740614961263,
        "Satellite Name": "Starlink Shell 1 860",
        "Satellite Number": 860,
        "Semi-Major Axis(m)": 6931778.249405717,
        "Time(s)": 50
    },
    {
        "Altitude(m)": 554797.0553408588,
        "Argument of Periapsis(deg)": 0.002091470877067421,
        "Eccentricity": 0.0,
        "Inclination(deg)": 53.0,
        "Latitude(deg)": 28.440768155577935,
        "Longitude(deg)": 118.7246033873016,
        "Mean Anomaly(deg)": 36.488287221340315,
        "RAAN(deg)": 194.99688737953517,
        "Satellite Name": "Starlink Shell 1 860",
        "Satellite Number": 860,
        "Semi-Major Axis(m)": 6931778.249405717,
        "Time(s)": 60
    },
    {
        "Altitude(m)": 554866.9720486065,
        "Argument of Periapsis(deg)": 0.0024400493565786582,
        "Eccentricity": 0.0,
        "Inclination(deg)": 53.0,
        "Latitude(deg)": 28.899574107051663,
        "Longitude(deg)": 119.17196660080329,
        "Mean Anomaly(deg)": 37.115118424896984,
        "RAAN(deg)": 194.9963686094577,
        "Satellite Name": "Starlink Shell 1 860",
        "Satellite Number": 860,
        "Semi-Major Axis(m)": 6931778.249405717,
        "Time(s)": 70
    },
    {
        "Altitude(m)": 554938.0799747395,
        "Argument of Periapsis(deg)": 0.002788627836089895,
        "Eccentricity": 0.0,
        "Inclination(deg)": 53.0,
        "Latitude(deg)": 29.356561245999217,
        "Longitude(deg)": 119.62363420637277,
        "Mean Anomaly(deg)": 37.74194962845373,
        "RAAN(deg)": 194.9958498393802,
        "Satellite Name": "Starlink Shell 1 860",
        "Satellite Number": 860,
        "Semi-Major Axis(m)": 6931778.249405717,
        "Time(s)": 80
    },
    {
        "Altitude(m)": 555010.3261166981,
        "Argument of Periapsis(deg)": 0.0031372063156011316,
        "Eccentricity": 0.0,
        "Inclination(deg)": 53.0,
        "Latitude(deg)": 29.811679606909877,
        "Longitude(deg)": 120.07970877456708,
        "Mean Anomaly(deg)": 38.368780832010394,
        "RAAN(deg)": 194.99533106930278,
        "Satellite Name": "Starlink Shell 1 860",
        "Satellite Number": 860,
        "Semi-Major Axis(m)": 6931778.249405717,
        "Time(s)": 90
    },
    {
        "Altitude(m)": 555083.6570914905,
        "Argument of Periapsis(deg)": 0.0034857847951123688,
        "Eccentricity": 0.0,
        "Inclination(deg)": 53.0,
        "Latitude(deg)": 30.264878100685053,
        "Longitude(deg)": 120.54029469092787,
        "Mean Anomaly(deg)": 38.99561203556717,
        "RAAN(deg)": 194.99481229922526,
        "Satellite Name": "Starlink Shell 1 860",
        "Satellite Number": 860,
        "Semi-Major Axis(m)": 6931778.249405717,
        "Time(s)": 100
    },
    {
        "Altitude(m)": 555158.0191638957,
        "Argument of Periapsis(deg)": 0.003834363274623606,
        "Eccentricity": 0.0,
        "Inclination(deg)": 53.0,
        "Latitude(deg)": 30.716104483224616,
        "Longitude(deg)": 121.00549713622527,
        "Mean Anomaly(deg)": 39.62244323912387,
        "RAAN(deg)": 194.99429352914782,
        "Satellite Name": "Starlink Shell 1 860",
        "Satellite Number": 860,
        "Semi-Major Axis(m)": 6931778.249405717,
        "Time(s)": 110
    },
    {
        "Altitude(m)": 555233.3582747978,
        "Argument of Periapsis(deg)": 0.004182941754134842,
        "Eccentricity": 0.0,
        "Inclination(deg)": 53.0,
        "Latitude(deg)": 31.16530532364958,
        "Longitude(deg)": 121.47542257559752,
        "Mean Anomaly(deg)": 40.24927444268059,
        "RAAN(deg)": 194.99377475907033,
        "Satellite Name": "Starlink Shell 1 860",
        "Satellite Number": 860,
        "Semi-Major Axis(m)": 6931778.249405717,
        "Time(s)": 120
    },
    {
        "Altitude(m)": 555309.6200696114,
        "Argument of Periapsis(deg)": 0.004531520233646079,
        "Eccentricity": 0.0,
        "Inclination(deg)": 53.0,
        "Latitude(deg)": 31.612425972198707,
        "Longitude(deg)": 121.95017924338775,
        "Mean Anomaly(deg)": 40.876105646237306,
        "RAAN(deg)": 194.99325598899287,
        "Satellite Name": "Starlink Shell 1 860",
        "Satellite Number": 860,
        "Semi-Major Axis(m)": 6931778.249405717,
        "Time(s)": 130
    },
    {
        "Altitude(m)": 555386.7499268334,
        "Argument of Periapsis(deg)": 0.0048800987131573164,
        "Eccentricity": 0.0,
        "Inclination(deg)": 53.0,
        "Latitude(deg)": 32.05741052784466,
        "Longitude(deg)": 122.42987611046878,
        "Mean Anomaly(deg)": 41.502936849794004,
        "RAAN(deg)": 194.99273721891538,
        "Satellite Name": "Starlink Shell 1 860",
        "Satellite Number": 860,
        "Semi-Major Axis(m)": 6931778.249405717,
        "Time(s)": 140
    },
    {
        "Altitude(m)": 555464.6929866849,
        "Argument of Periapsis(deg)": 0.005228677192668553,
        "Eccentricity": 0.0,
        "Inclination(deg)": 53.0,
        "Latitude(deg)": 32.50020180567453,
        "Longitude(deg)": 122.91462335944485,
        "Mean Anomaly(deg)": 42.12976805335072,
        "RAAN(deg)": 194.99221844883792,
        "Satellite Name": "Starlink Shell 1 860",
        "Satellite Number": 860,
        "Semi-Major Axis(m)": 6931778.249405717,
        "Time(s)": 150
    },
    {
        "Altitude(m)": 555543.3941797891,
        "Argument of Periapsis(deg)": 0.00557725567217979,
        "Eccentricity": 0.0,
        "Inclination(deg)": 53.0,
        "Latitude(deg)": 32.940741304091624,
        "Longitude(deg)": 123.40453285448024,
        "Mean Anomaly(deg)": 42.75659925690744,
        "RAAN(deg)": 194.99169967876045,
        "Satellite Name": "Starlink Shell 1 860",
        "Satellite Number": 860,
        "Semi-Major Axis(m)": 6931778.249405717,
        "Time(s)": 160
    },
    {
        "Altitude(m)": 555622.7982559572,
        "Argument of Periapsis(deg)": 0.0059258341516910265,
        "Eccentricity": 0.0,
        "Inclination(deg)": 53.0,
        "Latitude(deg)": 33.37896917190029,
        "Longitude(deg)": 123.89971709248213,
        "Mean Anomaly(deg)": 43.38343046046414,
        "RAAN(deg)": 194.99118090868296,
        "Satellite Name": "Starlink Shell 1 860",
        "Satellite Number": 860,
        "Semi-Major Axis(m)": 6931778.249405717,
        "Time(s)": 170
    },
    {
        "Altitude(m)": 555702.849812975,
        "Argument of Periapsis(deg)": 0.006274412631202263,
        "Eccentricity": 0.0,
        "Inclination(deg)": 53.0,
        "Latitude(deg)": 33.81482417533995,
        "Longitude(deg)": 124.40028966096973,
        "Mean Anomaly(deg)": 44.01026166402087,
        "RAAN(deg)": 194.9906621386055,
        "Satellite Name": "Starlink Shell 1 860",
        "Satellite Number": 860,
        "Semi-Major Axis(m)": 6931778.249405717,
        "Time(s)": 180
    }
]